<?xml version="1.0" encoding="UTF-8"?>
<kml xmlns="http://www.opengis.net/kml/2.2">
  <Document>
    <name>春日井市30km圏内</name>
    <Placemark>
      <name>対応エリア（目安）</name>
      <Style>
        <PolyStyle>
          <color>80ff0000</color> <outline>0</outline>
        </PolyStyle>
      </Style>
      <Polygon>
        <outerBoundaryIs>
          <LinearRing>
            <coordinates>
              136.972,35.517 137.135,35.498 137.268,35.429 137.351,35.321
              137.369,35.191 137.322,35.066 137.218,34.972 137.078,34.925
              136.924,34.928 136.782,34.981 136.671,35.080 136.611,35.207
              136.617,35.341 136.685,35.457 136.808,35.529 136.972,35.517
            </coordinates>
          </LinearRing>
        </outerBoundaryIs>
      </Polygon>
    </Placemark>
  </Document>
</kml>


春日井・小牧エリアのお客様からたくさんの「ありがとう」をいただいています。

限定しない方が良いので春日井・小牧エリアのは削除してください

フッターはまだバランスが悪いです。メニューはセンターに来て欲しいです。

スマホで見たとき改行位置は以下にしてください

春日井で夫婦で活動するアットホームなお店です。大手にはない
家族のような親しみやすさと責任感で、丁寧に作業します。

これは改行しないでください
春日井市を中心におよそ30km圏内