<?xml version="1.0" encoding="UTF-8"?>
<kml xmlns="http://www.opengis.net/kml/2.2">
  <Document>
    <name>春日井市 30km圏内</name>
    <Style id="radiusStyle">
      <LineStyle>
        <color>ff0000ff</color>
        <width>2</width>
      </LineStyle>
      <PolyStyle>
        <color>400000ff</color>
      </PolyStyle>
    </Style>
    <Placemark>
      <name>対応エリア (30km)</name>
      <styleUrl>#radiusStyle</styleUrl>
      <Polygon>
        <outerBoundaryIs>
          <LinearRing>
            <coordinates>
              137.29807034497787,35.2493,0 137.29626054166087,35.27750141163502,0 137.2908509602937,35.30539384270265,0 137.2819008693819,35.332671697891236,0 137.26950832799437,35.35903611531108,0 137.25380911140786,35.384198240887805,0 137.23497522352463,35.4078823931081,0 137.2132130123615,35.429829083444005,0 137.18876090925804,35.44979785936356,0 137.16188681657277,35.46756993877904,0 137.13288517248895,35.48295060706935,0 137.1020737250881,35.49577135041407,0 137.06979005103568,35.50589170206621,0 137.0363878570204,35.51320078133524,0 137.00223310446975,35.517618508419176,0 136.9677,35.51909648177562,0 136.93316689553026,35.517618508419176,0 136.89901214297961,35.51320078133524,0 136.86560994896433,35.50589170206621,0 136.8333262749119,35.49577135041407,0 136.80251482751106,35.48295060706935,0 136.77351318342724,35.46756993877904,0 136.74663909074198,35.44979785936356,0 136.7221869876385,35.429829083444005,0 136.7004247764754,35.4078823931081,0 136.68159088859215,35.384198240887805,0 136.66589167200564,35.35903611531108,0 136.65349913061812,35.332671697891236,0 136.6445490397063,35.30539384270265,0 136.63913945833914,35.27750141163502,0 136.63732965502214,35.2493,0 136.63913945833914,35.221098588364974,0 136.6445490397063,35.19320615729735,0 136.65349913061812,35.16592830210876,0 136.66589167200564,35.13956388468892,0 136.68159088859215,35.11440175911219,0 136.7004247764754,35.09071760689189,0 136.7221869876385,35.06877091655599,0 136.74663909074198,35.04880214063644,0 136.77351318342724,35.03103006122095,0 136.80251482751106,35.01564939293065,0 136.8333262749119,35.00282864958593,0 136.86560994896433,34.99270829793379,0 136.89901214297961,34.98539921866475,0 136.93316689553026,34.98098149158082,0 136.9677,34.97950351822438,0 137.00223310446975,34.98098149158082,0 137.0363878570204,34.98539921866475,0 137.06979005103568,34.99270829793379,0 137.1020737250881,35.00282864958593,0 137.13288517248895,35.01564939293065,0 137.16188681657277,35.03103006122095,0 137.18876090925804,35.04880214063644,0 137.2132130123615,35.06877091655599,0 137.23497522352463,35.09071760689189,0 137.25380911140786,35.11440175911219,0 137.26950832799437,35.13956388468892,0 137.2819008693819,35.16592830210876,0 137.2908509602937,35.19320615729735,0 137.29626054166087,35.221098588364974,0 137.29807034497787,35.2493,0 
            </coordinates>
          </LinearRing>
        </outerBoundaryIs>
      </Polygon>
    </Placemark>
  </Document>
</kml>